324P/LaSagra,e,21.3991,270.5728,57.5175,3.096228,0.1809067,0.15303414,217.9910,08/21.0/2024,2000,g 13.0,4.0
# From MPEC 2024-LE0
325P/Yang-Gao,e,16.8436,256.8659,344.9176,3.545749,0.1476190,0.58918960,129.6379,08/21.0/2024,2000,g 14.0,4.0
# From MPEC 2024-LE0
326P/Hill,e,2.4721,99.7663,278.5466,4.073155,0.1198968,0.32033602,28.1807,08/21.0/2024,2000,g 13.5,4.0
# From MPEC 2024-M41
327P/VanNess,e,36.2422,173.9937,185.0420,3.562578,0.1465742,0.56280358,105.3574,08/21.0/2024,2000,g 16.0,4.0
# From MPEC 2024-Q20
328P/LONEOS-Tucker,e,17.6735,341.6089,30.6620,4.188888,0.1149624,0.55276893,2.7640,08/21.0/2024,2000,g 14.5,4.0
# From MPC101101
329P/LINEAR-Catalina,e,21.7171,87.6868,343.5730,5.184241,0.0834980,0.67884770,265.6091,08/21.0/2024,2000,g 13.5,4.0
# From MPEC 2023-J29
330P/Catalina,e,15.7332,293.0805,188.8201,6.617057,0.0579038,0.55011814,168.7542,08/21.0/2024,2000,g 12.0,4.0
# From MPEC 2024-Q20
331P/Gibbs,e,9.7401,216.7493,185.2004,3.003865,0.1893143,0.04151680,267.4813,08/21.0/2024,2000,g 12.0,4.0
# From MPEC 2016-K18
332P/Ikeya-Murakami,e,9.3834,3.7570,152.2891,3.086625,0.1817516,0.48955916,199.7003,08/21.0/2024,2000,g 18.0,4.0
# From MPEC 2016-K18
332P-A/Ikeya-Murakami,e,9.3838,152.3102,3.7362,3.086616,0.1817524,0.48956462,199.6996,08/21.0/2024,2000,g  9.0,4.0
# From MPEC 2016-EI8
332P-B/Ikeya-Murakami,e,9.3805,3.8028,152.3711,3.082329,0.1821317,0.48970701,359.9699,03/17.0/2016,2000,g 19.0,4.0
# From MPEC 2016-K18
332P-C/Ikeya-Murakami,e,9.3829,152.3015,3.7366,3.086583,0.1817554,0.48957018,199.7170,08/21.0/2024,2000,g 16.5,4.0
# From MPEC 2016-ED0
332P-D/Ikeya-Murakami,e,9.3761,3.7923,152.4393,3.081138,0.1822373,0.48977814,359.9486,03/17.0/2016,2000,g 19.0,4.0
# From MPEC 2016-ED0
332P-E/Ikeya-Murakami,e,9.3774,3.8228,152.2825,3.079877,0.1823493,0.48922008,359.9889,03/17.0/2016,2000,g 21.0,4.0
# From MPEC 2016-ED0
332P-F/Ikeya-Murakami,e,9.5293,3.4757,152.8203,3.163214,0.1751908,0.49918860,359.8501,03/17.0/2016,2000,g 21.0,4.0
# From MPEC 2016-ED0
332P-G/Ikeya-Murakami,e,9.2523,3.6955,154.4000,3.050519,0.1849880,0.49200362,359.9006,03/19.0/2016,2000,g 19.0,4.0
# From MPC100285
332P-H/Ikeya-Murakami,e,9.3834,152.3022,3.7363,3.086764,0.1817393,0.48960590,199.6341,08/21.0/2024,2000,g 19.0,4.0
# From MPEC 2016-ED0
332P-I/Ikeya-Murakami,e,9.3791,3.8048,152.3297,3.081767,0.1821815,0.48955490,359.9360,03/17.0/2016,2000,g 20.5,2.0
# From MPEC 2016-EI8
332P-J/Ikeya-Murakami,e,9.4296,3.6729,152.7712,3.115165,0.1792596,0.49429435,359.8613,03/17.0/2016,2000,g 20.5,2.0
# From MPEC 2024-NE4
333P/LINEAR,e,132.0216,115.7057,26.0183,4.220317,0.1136806,0.73628921,348.5978,08/21.0/2024,2000,g 15.0,4.0
# From MPEC 2023-J29
334P/NEAT,e,20.3717,90.4476,90.0379,6.828177,0.0552391,0.35132626,145.5973,08/21.0/2024,2000,g 10.5,4.0
# From MPEC 2023-M14
335P/Gibbs,e,7.2949,330.8085,162.3033,3.577594,0.1456523,0.54660488,107.7559,08/21.0/2024,2000,g 16.8,4.0
# From MPC105244
336P/McNaught,e,17.8310,298.2070,308.6249,5.037834,0.0871642,0.44429692,240.9892,08/21.0/2024,2000,g 13.5,4.0
# From MPEC 2024-A43
337P/WISE,e,15.7362,104.3645,163.0444,3.298100,0.1645540,0.49941394,128.1153,08/21.0/2024,2000,g 17.0,4.0
# From MPEC 2024-Q20
338P/McNaught,e,25.3856,9.7932,4.6005,3.893361,0.1282971,0.41235594,2.2701,08/21.0/2024,2000,g 12.0,4.0
# From MPC101101
339P/Gibbs,e,5.7332,27.4723,172.6867,3.699589,0.1385077,0.63565056,49.3192,08/21.0/2024,2000,g 17.0,4.0
# From MPC133426
340P/Boattini,e,2.0787,291.6624,36.0620,4.248426,0.1125543,0.28025370,317.9923,08/21.0/2024,2000,g 14.3,4.0
# From MPEC 2023-J29
341P/Gibbs,e,3.7964,29.9597,312.3430,4.287067,0.1110360,0.41534237,332.8344,08/21.0/2024,2000,g 12.5,4.0
# From MPC101101
342P/SOHO,e,11.6948,73.3222,27.6339,3.041075,0.1858503,0.98294356,0.0000,02/07.5563/2027,2000,g  9.0,4.0
# From MPEC 2024-PC5
343P/NEAT-LONEOS,e,5.5971,257.0575,137.5937,5.457515,0.0773057,0.58515343,213.0729,08/21.0/2024,2000,g 14.0,4.0
# From MPEC 2023-J29
344P/Read,e,3.4991,273.1006,140.5760,4.856905,0.0920799,0.42379134,261.7004,08/21.0/2024,2000,g 13.0,4.0
# From MPEC 2024-Q20
345P/LINEAR,e,2.7280,154.5105,196.6721,4.031392,0.1217648,0.22126431,358.8336,08/21.0/2024,2000,g 12.0,4.0
# From MPEC 2022-K19
346P/Catalina,e,22.2183,102.4564,336.0310,4.469935,0.1042923,0.50388651,285.9340,08/21.0/2024,2000,g 14.0,4.0
# From MPEC 2024-M41
347P/PANSTARRS,e,11.7651,260.9895,98.2603,3.604177,0.1440439,0.38682358,57.3866,08/21.0/2024,2000,g 15.0,4.0
# From MPEC 2022-ED3
348P/PANSTARRS,e,17.7389,312.9240,135.7308,3.151870,0.1761374,0.30741638,162.0373,08/21.0/2024,2000,g 14.0,4.0
# From MPEC 2024-LE0
349P/Lemmon,e,5.4885,331.7469,255.7847,3.578578,0.1455923,0.29858129,12.5092,08/21.0/2024,2000,g 14.0,4.0
# From MPC111775
350P/McNaught,e,7.3638,65.2930,140.0055,4.081185,0.1195431,0.09450825,291.4778,08/21.0/2024,2000,g 14.0,4.0
# From MPC105244
351P/Wiegert-PANSTARRS,e,12.7748,352.6769,283.3100,4.440757,0.1053219,0.29476212,337.1055,08/21.0/2024,2000,g 12.5,4.0
# From MPEC 2023-J29
352P/Skiff,e,21.0108,28.0199,309.4025,6.653197,0.0574326,0.61659705,150.3740,08/21.0/2024,2000,g 13.2,4.0
# From MPEC 2020-AA5
353P/McNaught,e,28.4169,121.5220,230.4919,4.170701,0.1157152,0.46990295,281.3852,08/21.0/2024,2000,g 14.5,4.0
# From MPEC 2024-EF7
354P/LINEAR,e,5.2507,320.0694,132.8397,2.289977,0.2844182,0.12449207,88.7337,08/21.0/2024,2000,g 15.5,4.0
# From MPEC 2023-CD7
355P/LINEAR-NEAT,e,11.0465,51.4330,336.3081,3.469667,0.1525009,0.50813757,21.5993,08/21.0/2024,2000,g 15.5,2.0
# From MPEC 2022-F14
356P/WISE,e,9.6404,160.8046,226.1609,4.153924,0.1164170,0.35603544,283.1526,08/21.0/2024,2000,g 14.0,4.0
# From MPC114609
357P/Hill,e,6.3141,44.5783,1.4652,4.455804,0.1047888,0.43612795,237.9970,08/21.0/2024,2000,g 15.5,4.0
# From MPEC 2024-EF7
358P/PANSTARRS,e,11.0663,85.6660,299.4925,3.147939,0.1764674,0.23961374,50.2817,08/21.0/2024,2000,g 18.0,4.0
# From MPC110086
359P/LONEOS,e,10.2630,149.7649,200.2970,4.641549,0.0985620,0.32344133,251.7605,08/21.0/2024,2000,g 13.5,4.0
# From MPC108599
360P/WISE,e,24.1089,2.2118,354.2448,3.696838,0.1386623,0.49912283,353.9331,08/21.0/2024,2000,g 19.5,6.0
# From MPEC 2023-CD7
361P/Spacewatch,e,13.9011,203.2496,219.0774,4.933402,0.0899465,0.43958589,201.2505,08/21.0/2024,2000,g 12.0,4.0
# From MPC114609
363P/Lemmon,e,5.3897,146.6357,340.8714,3.575448,0.1457835,0.51870392,347.7261,08/21.0/2024,2000,g 17.5,4.0
# From MPEC 2024-M41
364P/PANSTARRS,e,12.0843,46.1270,212.2903,2.891150,0.2004925,0.72124576,93.1826,08/21.0/2024,2000,g 17.0,2.0
# From MPC111775
365P/PANSTARRS,e,9.8499,86.6566,67.4239,3.156445,0.1757546,0.58146446,55.6426,08/21.0/2024,2000,g 17.0,4.0
# From MPC114610
366P/Spacewatch,e,8.8569,70.7230,153.0119,3.499084,0.1505818,0.34841760,335.4637,08/21.0/2024,2000,g 15.0,4.0
# From MPC112395
367P/Catalina,e,8.4596,58.6612,172.7105,3.510740,0.1498325,0.27994619,338.4802,08/21.0/2024,2000,g 17.5,2.0
# From MPC114610
368P/NEAT,e,15.4821,257.8601,118.9703,5.533259,0.0757238,0.62617216,164.0234,08/21.0/2024,2000,g 14.0,4.0
# From MPC114610
369P/Hill,e,10.3220,47.2956,13.2039,4.379491,0.1075396,0.55593415,229.3776,08/21.0/2024,2000,g 15.0,4.0
# From MPEC 2021-F20
370P/NEAT,e,19.4232,55.0819,356.7558,6.438058,0.0603353,0.61546369,136.4455,08/21.0/2024,2000,g 13.0,4.0
# From MPC114610
371P/LINEAR-Skiff,e,17.3851,67.2830,308.5680,4.180485,0.1153092,0.47683748,247.2660,08/21.0/2024,2000,g 16.0,4.0
# From MPEC 2020-K19
372P/McNaught,e,9.5066,27.5518,326.0155,4.511338,0.1028599,0.15162465,218.8845,08/21.0/2024,2000,g 13.5,4.0
# From MPEC 2021-F20
373P/Rinner,e,13.7702,231.9426,221.0765,3.798275,0.1331449,0.39368416,260.8197,08/21.0/2024,2000,g 14.5,4.0
# From MPC114610
374P/Larson,e,10.7638,7.8946,51.5281,4.971065,0.0889262,0.46376529,181.9472,08/21.0/2024,2000,g 14.0,4.0
# From MPEC 2021-F20
375P/Hill,e,17.3681,359.8772,119.3993,5.546451,0.0754538,0.65991867,156.0746,08/21.0/2024,2000,g 16.0,4.0
# From MPEC 2022-K19
376P/LONEOS,e,1.1662,312.8571,285.4076,5.756897,0.0713545,0.51385094,128.6005,08/21.0/2024,2000,g 12.5,4.0
# From MPEC 2022-N37
377P/Scotti,e,9.0255,226.0149,354.8743,6.696795,0.0568727,0.25113532,85.5110,08/21.0/2024,2000,g  9.5,4.0
# From MPEC 2024-D33
378P/McNaught,e,19.1483,93.8092,193.3787,6.291235,0.0624597,0.46473249,88.1279,08/21.0/2024,2000,g 12.0,4.0
# From MPC115889
379P/Spacewatch,e,12.4393,30.5025,184.4353,3.487704,0.1513194,0.35003746,276.7160,08/21.0/2024,2000,g 15.0,4.0
# From MPEC 2023-C45
380P/PANSTARRS,e,8.0200,127.9920,87.9087,4.429880,0.1057100,0.33643691,206.8541,08/21.0/2024,2000,g 12.5,4.0
# From MPEC 2021-J28
381P/LINEAR-Spacewatch,e,28.3552,173.2994,173.8515,7.143947,0.0516175,0.68100655,92.4368,08/21.0/2024,2000,g 17.5,2.0
# From MPEC 2024-MB8
382P/Larson,e,8.2645,171.5948,162.2196,5.930530,0.0682439,0.26977050,68.9789,08/21.0/2024,2000,g  8.0,4.0
# From MPEC 2022-OB6
383P/Christensen,e,12.3199,207.8530,133.7492,3.548257,0.1474625,0.59870175,259.6557,08/21.0/2024,2000,g 18.0,4.0
# From MPEC 2024-Q20
384P/Kowalski,e,7.2833,354.1996,37.7129,2.898273,0.1997538,0.61629421,354.1784,08/21.0/2024,2000,g 19.5,4.0
# From MPEC 2021-F20
385P/Hill,e,16.8262,357.0589,44.4196,4.288825,0.1109677,0.40207622,199.7393,08/21.0/2024,2000,g 13.0,4.0
# From MPEC 2021-L04
386P/PANSTARRS,e,15.2423,134.9164,353.0833,4.050085,0.1209227,0.41718522,176.8062,08/21.0/2024,2000,g 14.5,4.0
# From MPEC 2021-J28
387P/Boattini,e,8.9369,259.2411,162.8347,4.797175,0.0938049,0.73709879,169.6566,08/21.0/2024,2000,g 15.0,4.0
# From MPEC 2021-S45
388P/Gibbs,e,23.8874,37.0269,42.3314,5.240594,0.0821549,0.61932765,152.2360,08/21.0/2024,2000,g 13.0,4.0
# From MPEC 2022-OB6
389P/Siding Spring,e,160.0846,218.8756,249.3700,5.632027,0.0737407,0.70525734,124.9954,08/21.0/2024,2000,g 16.0,4.0
# From MPEC 2024-EF7
390P/Gibbs,e,18.5341,152.2301,232.5049,5.815738,0.0702743,0.70708574,113.2955,08/21.0/2024,2000,g 12.0,4.0
# From MPEC 2021-F20
391P/Kowalski,e,21.2594,124.7843,187.1331,4.689217,0.0970630,0.11865180,227.9420,08/21.0/2024,2000,g  8.0,4.0
# From MPEC 2021-J28
